[Satellite]
VERSION=1.1
NAME=MOLNIYA 3-24
NICKNAME=MOLNIYA 3-24
TLE1=1 15738U 85040A   20157.46471996  .00000154  00000-0  00000-0 0  9992
TLE2=2 15738  63.8519 207.4871 6472009 252.0984  31.3866  2.55630296284903
STATUS=0
